COSMOS 2425 (716)       
1 29670U 06062A   18048.23960440  .00000021  00000-0  10000-3 0  9994
2 29670  65.3385 296.5927 0022766 347.3197 224.0260  2.13104838 86755
COSMOS 2426 (717)       
1 29671U 06062B   18047.77694513  .00000021  00000-0  10000-3 0  9998
2 29671  65.3555 296.7022 0016167 162.7172 270.3017  2.13103020 86759
COSMOS 2433 (720)       
1 32275U 07052A   18047.72832902  .00000008  00000-0  10000-3 0  9998
2 32275  65.6309  57.4051 0005148 273.3623  97.4603  2.13104706 80265
COSMOS 2432 (719)       
1 32276U 07052B   18048.06490880  .00000008  00000-0  10000-3 0  9992
2 32276  65.6428  57.4698 0012988 325.6027 255.6583  2.13103914 80269
COSMOS 2434 (721)       
1 32393U 07065A   18048.49288027  .00000022  00000-0  00000+0 0  9992
2 32393  64.9540 295.6129 0004339  87.2380  38.5606  2.13103037 78981
COSMOS 2436 (723)       
1 32395U 07065C   18048.44269166  .00000022  00000-0  10000-3 0  9997
2 32395  64.9626 295.6675 0016697   1.1434 136.0531  2.13104231 78910
COSMOS 2456 (730)       
1 36111U 09070A   18047.69013987  .00000023  00000-0  00000+0 0  9995
2 36111  64.1848 175.2192 0003383 336.2086  65.6832  2.13102793 63633
COSMOS 2457 (733)       
1 36112U 09070B   18047.78563211  .00000024  00000-0  00000-0 0  9998
2 36112  64.1661 175.1290 0006575 154.0539  88.5560  2.13101496 63631
COSMOS 2458 (734)       
1 36113U 09070C   18047.53944034  .00000021  00000-0  10000-3 0  9999
2 36113  64.1713 175.1474 0002492  49.1329  52.8421  2.13102026 63639
COSMOS 2459 (731)       
1 36400U 10007A   18048.44590809  .00000007  00000-0  10000-3 0  9992
2 36400  65.5418  56.4571 0028104 346.9106  74.3308  2.13102188 62005
COSMOS 2461 (735)       
1 36401U 10007B   18047.73084343  .00000007  00000-0  10000-3 0  9995
2 36401  65.5323  56.4569 0004878  46.5946  96.6647  2.13102110 61989
COSMOS 2460 (732)       
1 36402U 10007C   18048.08566485  .00000007  00000-0  10000-3 0  9997
2 36402  65.5232  56.4137 0002602 289.2009 167.1455  2.13101674 61995
COSMOS 2464 (736)       
1 37139U 10041C   18047.68042396  .00000022  00000-0  00000+0 0  9990
2 37139  64.5573 295.5081 0025110  11.8546  78.4221  2.13102652 58053
COSMOS 2471 (701K)      
1 37372U 11009A   18047.40347978  .00000007  00000-0  00000-0 0  9992
2 37372  65.5205  56.3834 0009566 242.3503 192.0324  2.13107666 54250
COSMOS 2474 (742)       
1 37829U 11055A   18047.95100854  .00000026  00000-0  00000+0 0  9990
2 37829  64.5083 175.8763 0006925 242.2039 218.5043  2.13101822 49633
COSMOS 2476 (744)       
1 37867U 11064A   18047.73463625  .00000024  00000-0  00000-0 0  9995
2 37867  64.4878 175.9488 0016534 239.3484 101.3706  2.13101910 48978
COSMOS 2477 (745)       
1 37868U 11064B   18048.08414795  .00000028  00000-0  00000+0 0  9992
2 37868  64.4963 175.9843 0014426 240.5880 187.2556  2.13101709 48940
COSMOS 2475 (743)       
1 37869U 11064C   18047.64511446  .00000023  00000-0  00000-0 0  9991
2 37869  64.5039 175.9928 0018665 268.9042 138.7511  2.13101859 48941
COSMOS 2485 (747)       
1 39155U 13019A   18047.79048505  .00000025  00000-0  00000-0 0  9992
2 39155  64.6572 176.0306 0017052 233.9422 194.5613  2.13101862 37450
COSMOS 2492 (754)       
1 39620U 14012A   18047.76967454  .00000006  00000-0  10000-3 0  9996
2 39620  65.4129  56.3267 0016510 323.3750 123.7558  2.13103407 30403
COSMOS 2500 (755)       
1 40001U 14032A   18048.07451861  .00000006  00000-0  00000+0 0  9993
2 40001  65.3542  56.2955 0007025 229.0519 314.4578  2.13102769 28627
COSMOS 2501 (702K)      
1 40315U 14075A   18047.38372170  .00000019  00000-0  00000-0 0  9991
2 40315  64.2842 296.7765 0014357 209.6472 326.9274  2.13098453 25019
COSMOS 2514 (751)       
1 41330U 16008A   18047.74144874  .00000006  00000-0  00000-0 0  9991
2 41330  65.1556  56.3901 0010598 229.7672 238.8414  2.13103303 15780
COSMOS 2516 (753)       
1 41554U 16032A   18048.45581433  .00000019  00000-0  00000+0 0  9994
2 41554  64.5027 296.5695 0010615 224.1182 324.0387  2.13101672 13408
COSMOS 2522 (752)       
1 42939U 17055A   18047.65435213  .00000021  00000-0  00000-0 0  9997
2 42939  64.7332 296.5277 0006590 261.4705 258.2362  2.13101975  3142
